[{"OBJECT_NAME":"KUIPER-00015","OBJECT_ID":"2025-088H","EPOCH":"2026-03-09T12:30:02.006784","MEAN_MOTION":14.83626832,"ECCENTRICITY":0.00099098,"INCLINATION":51.8981,"RA_OF_ASC_NODE":119.0847,"ARG_OF_PERICENTER":68.1403,"MEAN_ANOMALY":292.0614,"EPHEMERIS_TYPE":0,"CLASSIFICATION_TYPE":"U","NORAD_CAT_ID":63731,"ELEMENT_SET_NO":999,"REV_AT_EPOCH":4767,"BSTAR":-0.0010321655,"MEAN_MOTION_DOT":-8.826e-5,"MEAN_MOTION_DDOT":0},{"OBJECT_NAME":"FENGYUN 1C DEB","OBJECT_ID":"1999-025XG","EPOCH":"2026-03-09T14:05:00.255264","MEAN_MOTION":14.623867,"ECCENTRICITY":0.0186024,"INCLINATION":98.2742,"RA_OF_ASC_NODE":340.7736,"ARG_OF_PERICENTER":80.2516,"MEAN_ANOMALY":39.7352,"EPHEMERIS_TYPE":0,"CLASSIFICATION_TYPE":"U","NORAD_CAT_ID":30247,"ELEMENT_SET_NO":999,"REV_AT_EPOCH":98550,"BSTAR":0.0027146,"MEAN_MOTION_DOT":0.00017593,"MEAN_MOTION_DDOT":0}]
